STARLINK-30069          
1 56834U 23079M   26067.48212902 -.00002416  00000+0 -80472-4 0  9995
2 56834  42.9986 110.4464 0000469 272.6695  87.4103 15.26726881152740
STARLINK-36428          
1 67362U 26003AE  26068.48382604  .00037240  00000+0  13547-2 0  9999
2 67362  43.0027 228.1124 0001227 240.5697 119.5033 15.27610726  8790
